<?xml version='1.0' encoding='utf-8'?>
<gpx xmlns="http://www.topografix.com/GPX/1/1" version="1.1" creator="Peak - Cicerone approach import">
  <metadata>
    <name>Taluka to Ruinsara - approach only</name>
    <desc>Cicerone Trekking in the Indian Himalayas, Trek 2 stages 1-2. Publisher route exports, not a verified recorded track. No Kalanag summit route. Separate stages preserved without an invented connecting segment.</desc>
  </metadata>
  <trk>
    <name>Trek 2 Stage 1 Taluka to Osla</name>
    <trkseg>
      <trkpt lat="31.077168" lon="78.244574">
        <ele>2122.25</ele>
      </trkpt>
      <trkpt lat="31.077109" lon="78.244634">
        <ele>2125.0</ele>
      </trkpt>
      <trkpt lat="31.077051" lon="78.244773">
        <ele>2128.75</ele>
      </trkpt>
      <trkpt lat="31.077092" lon="78.244947">
        <ele>2128.5</ele>
      </trkpt>
      <trkpt lat="31.077161" lon="78.245103">
        <ele>2128.5</ele>
      </trkpt>
      <trkpt lat="31.077271" lon="78.245189">
        <ele>2125.25</ele>
      </trkpt>
      <trkpt lat="31.077364" lon="78.245247">
        <ele>2122.0</ele>
      </trkpt>
      <trkpt lat="31.07756" lon="78.245456">
        <ele>2118.25</ele>
      </trkpt>
      <trkpt lat="31.077638" lon="78.245509">
        <ele>2117.75</ele>
      </trkpt>
      <trkpt lat="31.077785" lon="78.245559">
        <ele>2116.0</ele>
      </trkpt>
      <trkpt lat="31.077897" lon="78.245564">
        <ele>2114.0</ele>
      </trkpt>
      <trkpt lat="31.078009" lon="78.245605">
        <ele>2112.25</ele>
      </trkpt>
      <trkpt lat="31.078154" lon="78.24567">
        <ele>2110.0</ele>
      </trkpt>
      <trkpt lat="31.078244" lon="78.245751">
        <ele>2108.5</ele>
      </trkpt>
      <trkpt lat="31.078437" lon="78.245944">
        <ele>2104.0</ele>
      </trkpt>
      <trkpt lat="31.07861" lon="78.246162">
        <ele>2098.0</ele>
      </trkpt>
      <trkpt lat="31.078659" lon="78.246318">
        <ele>2095.0</ele>
      </trkpt>
      <trkpt lat="31.078593" lon="78.246547">
        <ele>2094.25</ele>
      </trkpt>
      <trkpt lat="31.078619" lon="78.246677">
        <ele>2092.0</ele>
      </trkpt>
      <trkpt lat="31.078659" lon="78.246803">
        <ele>2092.0</ele>
      </trkpt>
      <trkpt lat="31.078629" lon="78.24686">
        <ele>2093.5</ele>
      </trkpt>
      <trkpt lat="31.078682" lon="78.246936">
        <ele>2092.5</ele>
      </trkpt>
      <trkpt lat="31.078822" lon="78.247093">
        <ele>2088.5</ele>
      </trkpt>
      <trkpt lat="31.078878" lon="78.247234">
        <ele>2087.0</ele>
      </trkpt>
      <trkpt lat="31.079136" lon="78.247546">
        <ele>2076.5</ele>
      </trkpt>
      <trkpt lat="31.079335" lon="78.247813">
        <ele>2067.75</ele>
      </trkpt>
      <trkpt lat="31.079417" lon="78.247951">
        <ele>2064.25</ele>
      </trkpt>
      <trkpt lat="31.079426" lon="78.248099">
        <ele>2064.25</ele>
      </trkpt>
      <trkpt lat="31.079364" lon="78.248309">
        <ele>2067.5</ele>
      </trkpt>
      <trkpt lat="31.079358" lon="78.248706">
        <ele>2063.5</ele>
      </trkpt>
      <trkpt lat="31.079315" lon="78.249026">
        <ele>2061.5</ele>
      </trkpt>
      <trkpt lat="31.079247" lon="78.249282">
        <ele>2061.0</ele>
      </trkpt>
      <trkpt lat="31.079119" lon="78.249469">
        <ele>2063.0</ele>
      </trkpt>
      <trkpt lat="31.078949" lon="78.24966">
        <ele>2066.25</ele>
      </trkpt>
      <trkpt lat="31.078815" lon="78.249732">
        <ele>2069.75</ele>
      </trkpt>
      <trkpt lat="31.07877" lon="78.24977">
        <ele>2070.75</ele>
      </trkpt>
      <trkpt lat="31.078753" lon="78.24985">
        <ele>2070.25</ele>
      </trkpt>
      <trkpt lat="31.078806" lon="78.250068">
        <ele>2067.25</ele>
      </trkpt>
      <trkpt lat="31.078927" lon="78.250297">
        <ele>2065.75</ele>
      </trkpt>
      <trkpt lat="31.078963" lon="78.250422">
        <ele>2065.5</ele>
      </trkpt>
      <trkpt lat="31.079002" lon="78.250709">
        <ele>2067.0</ele>
      </trkpt>
      <trkpt lat="31.079118" lon="78.250827">
        <ele>2062.25</ele>
      </trkpt>
      <trkpt lat="31.079264" lon="78.250874">
        <ele>2058.75</ele>
      </trkpt>
      <trkpt lat="31.07937" lon="78.250886">
        <ele>2055.75</ele>
      </trkpt>
      <trkpt lat="31.07942" lon="78.250869">
        <ele>2053.25</ele>
      </trkpt>
      <trkpt lat="31.07956" lon="78.250964">
        <ele>2053.0</ele>
      </trkpt>
      <trkpt lat="31.079649" lon="78.25104">
        <ele>2053.5</ele>
      </trkpt>
      <trkpt lat="31.079701" lon="78.251117">
        <ele>2055.0</ele>
      </trkpt>
      <trkpt lat="31.079835" lon="78.251376">
        <ele>2061.5</ele>
      </trkpt>
      <trkpt lat="31.079949" lon="78.25151">
        <ele>2062.5</ele>
      </trkpt>
      <trkpt lat="31.080034" lon="78.251624">
        <ele>2064.0</ele>
      </trkpt>
      <trkpt lat="31.080161" lon="78.25183">
        <ele>2066.25</ele>
      </trkpt>
      <trkpt lat="31.080243" lon="78.251998">
        <ele>2067.25</ele>
      </trkpt>
      <trkpt lat="31.080318" lon="78.252116">
        <ele>2066.25</ele>
      </trkpt>
      <trkpt lat="31.080559" lon="78.252545">
        <ele>2060.25</ele>
      </trkpt>
      <trkpt lat="31.080839" lon="78.252794">
        <ele>2054.25</ele>
      </trkpt>
      <trkpt lat="31.081063" lon="78.253151">
        <ele>2064.5</ele>
      </trkpt>
      <trkpt lat="31.081241" lon="78.253525">
        <ele>2065.75</ele>
      </trkpt>
      <trkpt lat="31.081394" lon="78.253959">
        <ele>2062.25</ele>
      </trkpt>
      <trkpt lat="31.081399" lon="78.254003">
        <ele>2066.75</ele>
      </trkpt>
      <trkpt lat="31.08144" lon="78.254316">
        <ele>2066.75</ele>
      </trkpt>
      <trkpt lat="31.08151" lon="78.2545">
        <ele>2068.0</ele>
      </trkpt>
      <trkpt lat="31.081591" lon="78.254641">
        <ele>2067.0</ele>
      </trkpt>
      <trkpt lat="31.081967" lon="78.254866">
        <ele>2058.5</ele>
      </trkpt>
      <trkpt lat="31.08213" lon="78.255011">
        <ele>2055.75</ele>
      </trkpt>
      <trkpt lat="31.082336" lon="78.255175">
        <ele>2051.75</ele>
      </trkpt>
      <trkpt lat="31.08248" lon="78.255305">
        <ele>2049.5</ele>
      </trkpt>
      <trkpt lat="31.082758" lon="78.255499">
        <ele>2048.5</ele>
      </trkpt>
      <trkpt lat="31.082944" lon="78.255663">
        <ele>2047.0</ele>
      </trkpt>
      <trkpt lat="31.082954" lon="78.25569">
        <ele>2047.25</ele>
      </trkpt>
      <trkpt lat="31.082937" lon="78.255766">
        <ele>2049.0</ele>
      </trkpt>
      <trkpt lat="31.082895" lon="78.255827">
        <ele>2051.5</ele>
      </trkpt>
      <trkpt lat="31.082715" lon="78.255991">
        <ele>2057.25</ele>
      </trkpt>
      <trkpt lat="31.082581" lon="78.25625">
        <ele>2061.0</ele>
      </trkpt>
      <trkpt lat="31.082522" lon="78.256457">
        <ele>2062.5</ele>
      </trkpt>
      <trkpt lat="31.0825" lon="78.256556">
        <ele>2063.0</ele>
      </trkpt>
      <trkpt lat="31.082493" lon="78.256689">
        <ele>2063.5</ele>
      </trkpt>
      <trkpt lat="31.082513" lon="78.25683">
        <ele>2064.75</ele>
      </trkpt>
      <trkpt lat="31.082614" lon="78.256949">
        <ele>2063.25</ele>
      </trkpt>
      <trkpt lat="31.082745" lon="78.257059">
        <ele>2060.5</ele>
      </trkpt>
      <trkpt lat="31.082829" lon="78.257139">
        <ele>2058.75</ele>
      </trkpt>
      <trkpt lat="31.082895" lon="78.257261">
        <ele>2057.5</ele>
      </trkpt>
      <trkpt lat="31.082931" lon="78.257383">
        <ele>2057.5</ele>
      </trkpt>
      <trkpt lat="31.083002" lon="78.257551">
        <ele>2056.5</ele>
      </trkpt>
      <trkpt lat="31.083071" lon="78.257662">
        <ele>2055.75</ele>
      </trkpt>
      <trkpt lat="31.083117" lon="78.257792">
        <ele>2056.25</ele>
      </trkpt>
      <trkpt lat="31.083205" lon="78.257952">
        <ele>2055.25</ele>
      </trkpt>
      <trkpt lat="31.0833" lon="78.258295">
        <ele>2056.75</ele>
      </trkpt>
      <trkpt lat="31.083306" lon="78.258474">
        <ele>2056.75</ele>
      </trkpt>
      <trkpt lat="31.08328" lon="78.258669">
        <ele>2057.75</ele>
      </trkpt>
      <trkpt lat="31.083254" lon="78.25881">
        <ele>2058.5</ele>
      </trkpt>
      <trkpt lat="31.083202" lon="78.258955">
        <ele>2060.5</ele>
      </trkpt>
      <trkpt lat="31.083159" lon="78.259104">
        <ele>2062.25</ele>
      </trkpt>
      <trkpt lat="31.083094" lon="78.259207">
        <ele>2064.75</ele>
      </trkpt>
      <trkpt lat="31.082993" lon="78.25934">
        <ele>2069.25</ele>
      </trkpt>
      <trkpt lat="31.082941" lon="78.259474">
        <ele>2071.5</ele>
      </trkpt>
      <trkpt lat="31.082869" lon="78.259599">
        <ele>2075.25</ele>
      </trkpt>
      <trkpt lat="31.082852" lon="78.259798">
        <ele>2076.5</ele>
      </trkpt>
      <trkpt lat="31.082963" lon="78.26021">
        <ele>2073.75</ele>
      </trkpt>
      <trkpt lat="31.08299" lon="78.260385">
        <ele>2074.25</ele>
      </trkpt>
      <trkpt lat="31.083058" lon="78.260591">
        <ele>2072.25</ele>
      </trkpt>
      <trkpt lat="31.083081" lon="78.260755">
        <ele>2072.5</ele>
      </trkpt>
      <trkpt lat="31.083071" lon="78.260904">
        <ele>2074.0</ele>
      </trkpt>
      <trkpt lat="31.083006" lon="78.261152">
        <ele>2079.0</ele>
      </trkpt>
      <trkpt lat="31.082941" lon="78.261347">
        <ele>2084.25</ele>
      </trkpt>
      <trkpt lat="31.082859" lon="78.26153">
        <ele>2090.75</ele>
      </trkpt>
      <trkpt lat="31.082816" lon="78.261686">
        <ele>2094.25</ele>
      </trkpt>
      <trkpt lat="31.082797" lon="78.262285">
        <ele>2096.5</ele>
      </trkpt>
      <trkpt lat="31.082803" lon="78.262521">
        <ele>2096.25</ele>
      </trkpt>
      <trkpt lat="31.08282" lon="78.262723">
        <ele>2095.75</ele>
      </trkpt>
      <trkpt lat="31.082865" lon="78.262899">
        <ele>2093.0</ele>
      </trkpt>
      <trkpt lat="31.082878" lon="78.263105">
        <ele>2092.75</ele>
      </trkpt>
      <trkpt lat="31.082918" lon="78.263288">
        <ele>2090.25</ele>
      </trkpt>
      <trkpt lat="31.082954" lon="78.263528">
        <ele>2092.75</ele>
      </trkpt>
      <trkpt lat="31.082967" lon="78.263685">
        <ele>2096.0</ele>
      </trkpt>
      <trkpt lat="31.083032" lon="78.263917">
        <ele>2096.5</ele>
      </trkpt>
      <trkpt lat="31.083192" lon="78.264035">
        <ele>2085.75</ele>
      </trkpt>
      <trkpt lat="31.0833" lon="78.264169">
        <ele>2079.0</ele>
      </trkpt>
      <trkpt lat="31.083342" lon="78.264337">
        <ele>2080.5</ele>
      </trkpt>
      <trkpt lat="31.083349" lon="78.264474">
        <ele>2084.25</ele>
      </trkpt>
      <trkpt lat="31.083401" lon="78.26465">
        <ele>2088.0</ele>
      </trkpt>
      <trkpt lat="31.083479" lon="78.264795">
        <ele>2089.75</ele>
      </trkpt>
      <trkpt lat="31.083512" lon="78.264989">
        <ele>2092.5</ele>
      </trkpt>
      <trkpt lat="31.08361" lon="78.265134">
        <ele>2093.25</ele>
      </trkpt>
      <trkpt lat="31.083754" lon="78.265306">
        <ele>2091.75</ele>
      </trkpt>
      <trkpt lat="31.083888" lon="78.265401">
        <ele>2087.25</ele>
      </trkpt>
      <trkpt lat="31.084009" lon="78.26547">
        <ele>2080.25</ele>
      </trkpt>
      <trkpt lat="31.083996" lon="78.265504">
        <ele>2079.01202</ele>
      </trkpt>
      <trkpt lat="31.084009" lon="78.26547">
        <ele>2082.0</ele>
      </trkpt>
      <trkpt lat="31.084054" lon="78.265496">
        <ele>2080.25</ele>
      </trkpt>
      <trkpt lat="31.084156" lon="78.265592">
        <ele>2075.5</ele>
      </trkpt>
      <trkpt lat="31.084152" lon="78.265718">
        <ele>2076.75</ele>
      </trkpt>
      <trkpt lat="31.084107" lon="78.265828">
        <ele>2080.75</ele>
      </trkpt>
      <trkpt lat="31.084055" lon="78.266091">
        <ele>2095.25</ele>
      </trkpt>
      <trkpt lat="31.083992" lon="78.266271">
        <ele>2107.75</ele>
      </trkpt>
      <trkpt lat="31.084059" lon="78.266403">
        <ele>2108.25</ele>
      </trkpt>
      <trkpt lat="31.084179" lon="78.266571">
        <ele>2106.5</ele>
      </trkpt>
      <trkpt lat="31.084453" lon="78.266772">
        <ele>2102.25</ele>
      </trkpt>
      <trkpt lat="31.084517" lon="78.266829">
        <ele>2100.25</ele>
      </trkpt>
      <trkpt lat="31.084516" lon="78.266828">
        <ele>2101.25</ele>
      </trkpt>
      <trkpt lat="31.084608" lon="78.266912">
        <ele>2100.25</ele>
      </trkpt>
      <trkpt lat="31.084826" lon="78.266969">
        <ele>2091.0</ele>
      </trkpt>
      <trkpt lat="31.085009" lon="78.266937">
        <ele>2081.0</ele>
      </trkpt>
      <trkpt lat="31.085181" lon="78.266859">
        <ele>2080.0</ele>
      </trkpt>
      <trkpt lat="31.085343" lon="78.266887">
        <ele>2081.5</ele>
      </trkpt>
      <trkpt lat="31.085452" lon="78.267097">
        <ele>2083.0</ele>
      </trkpt>
      <trkpt lat="31.085476" lon="78.267454">
        <ele>2084.0</ele>
      </trkpt>
      <trkpt lat="31.085545" lon="78.267659">
        <ele>2086.0</ele>
      </trkpt>
      <trkpt lat="31.085636" lon="78.26772">
        <ele>2084.5</ele>
      </trkpt>
      <trkpt lat="31.085779" lon="78.267827">
        <ele>2081.75</ele>
      </trkpt>
      <trkpt lat="31.085877" lon="78.267935">
        <ele>2082.75</ele>
      </trkpt>
      <trkpt lat="31.085918" lon="78.268082">
        <ele>2085.75</ele>
      </trkpt>
      <trkpt lat="31.086154" lon="78.268058">
        <ele>2089.5</ele>
      </trkpt>
      <trkpt lat="31.086269" lon="78.268344">
        <ele>2089.25</ele>
      </trkpt>
      <trkpt lat="31.086419" lon="78.26862">
        <ele>2096.5</ele>
      </trkpt>
      <trkpt lat="31.086758" lon="78.268925">
        <ele>2105.0</ele>
      </trkpt>
      <trkpt lat="31.087757" lon="78.269792">
        <ele>2118.5</ele>
      </trkpt>
      <trkpt lat="31.088063" lon="78.270187">
        <ele>2124.5</ele>
      </trkpt>
      <trkpt lat="31.088189" lon="78.270882">
        <ele>2120.75</ele>
      </trkpt>
      <trkpt lat="31.088514" lon="78.27177">
        <ele>2134.5</ele>
      </trkpt>
      <trkpt lat="31.089097" lon="78.272677">
        <ele>2134.5</ele>
      </trkpt>
      <trkpt lat="31.089635" lon="78.273342">
        <ele>2138.25</ele>
      </trkpt>
      <trkpt lat="31.090158" lon="78.274106">
        <ele>2142.0</ele>
      </trkpt>
      <trkpt lat="31.09056" lon="78.2749">
        <ele>2142.0</ele>
      </trkpt>
      <trkpt lat="31.091833" lon="78.276655">
        <ele>2148.0</ele>
      </trkpt>
      <trkpt lat="31.093043" lon="78.278592">
        <ele>2151.25</ele>
      </trkpt>
      <trkpt lat="31.093043" lon="78.27859">
        <ele>2150.5</ele>
      </trkpt>
      <trkpt lat="31.093395" lon="78.279154">
        <ele>2151.25</ele>
      </trkpt>
      <trkpt lat="31.093775" lon="78.280235">
        <ele>2183.0</ele>
      </trkpt>
      <trkpt lat="31.094405" lon="78.281579">
        <ele>2176.75</ele>
      </trkpt>
      <trkpt lat="31.094203" lon="78.282384">
        <ele>2192.0</ele>
      </trkpt>
      <trkpt lat="31.094019" lon="78.282877">
        <ele>2201.75</ele>
      </trkpt>
      <trkpt lat="31.093716" lon="78.283263">
        <ele>2209.25</ele>
      </trkpt>
      <trkpt lat="31.093229" lon="78.283628">
        <ele>2224.0</ele>
      </trkpt>
      <trkpt lat="31.092997" lon="78.283982">
        <ele>2232.75</ele>
      </trkpt>
      <trkpt lat="31.09302" lon="78.284011">
        <ele>2232.5</ele>
      </trkpt>
      <trkpt lat="31.093076" lon="78.284079">
        <ele>2232.0</ele>
      </trkpt>
      <trkpt lat="31.09308" lon="78.284084">
        <ele>2232.0</ele>
      </trkpt>
      <trkpt lat="31.093244" lon="78.284156">
        <ele>2230.75</ele>
      </trkpt>
      <trkpt lat="31.09379" lon="78.284229">
        <ele>2233.25</ele>
      </trkpt>
      <trkpt lat="31.094277" lon="78.284015">
        <ele>2219.0</ele>
      </trkpt>
      <trkpt lat="31.094516" lon="78.284175">
        <ele>2218.25</ele>
      </trkpt>
      <trkpt lat="31.094773" lon="78.284208">
        <ele>2213.5</ele>
      </trkpt>
      <trkpt lat="31.094957" lon="78.284326">
        <ele>2215.5</ele>
      </trkpt>
      <trkpt lat="31.094901" lon="78.284626">
        <ele>2235.5</ele>
      </trkpt>
      <trkpt lat="31.094986" lon="78.284782">
        <ele>2247.0</ele>
      </trkpt>
      <trkpt lat="31.095149" lon="78.285077">
        <ele>2247.0</ele>
      </trkpt>
      <trkpt lat="31.095489" lon="78.285431">
        <ele>2242.25</ele>
      </trkpt>
      <trkpt lat="31.09582" lon="78.285763">
        <ele>2240.5</ele>
      </trkpt>
      <trkpt lat="31.095857" lon="78.286375">
        <ele>2254.75</ele>
      </trkpt>
      <trkpt lat="31.095728" lon="78.286815">
        <ele>2273.0</ele>
      </trkpt>
      <trkpt lat="31.096197" lon="78.288167">
        <ele>2281.25</ele>
      </trkpt>
      <trkpt lat="31.097125" lon="78.28925">
        <ele>2271.5</ele>
      </trkpt>
      <trkpt lat="31.097952" lon="78.289808">
        <ele>2244.0</ele>
      </trkpt>
      <trkpt lat="31.098062" lon="78.290409">
        <ele>2263.75</ele>
      </trkpt>
      <trkpt lat="31.099541" lon="78.291965">
        <ele>2254.75</ele>
      </trkpt>
      <trkpt lat="31.099853" lon="78.292158">
        <ele>2243.75</ele>
      </trkpt>
      <trkpt lat="31.100386" lon="78.293198">
        <ele>2261.0</ele>
      </trkpt>
      <trkpt lat="31.100671" lon="78.293574">
        <ele>2256.5</ele>
      </trkpt>
      <trkpt lat="31.100864" lon="78.294014">
        <ele>2264.0</ele>
      </trkpt>
      <trkpt lat="31.101149" lon="78.294271">
        <ele>2256.0</ele>
      </trkpt>
      <trkpt lat="31.101378" lon="78.294593">
        <ele>2251.75</ele>
      </trkpt>
      <trkpt lat="31.101819" lon="78.294668">
        <ele>2232.25</ele>
      </trkpt>
      <trkpt lat="31.101727" lon="78.295248">
        <ele>2254.25</ele>
      </trkpt>
      <trkpt lat="31.101507" lon="78.295473">
        <ele>2279.75</ele>
      </trkpt>
      <trkpt lat="31.101635" lon="78.295795">
        <ele>2287.0</ele>
      </trkpt>
      <trkpt lat="31.101764" lon="78.295913">
        <ele>2282.25</ele>
      </trkpt>
      <trkpt lat="31.101948" lon="78.296277">
        <ele>2280.75</ele>
      </trkpt>
      <trkpt lat="31.102003" lon="78.297308">
        <ele>2308.25</ele>
      </trkpt>
      <trkpt lat="31.10204" lon="78.298262">
        <ele>2328.0</ele>
      </trkpt>
      <trkpt lat="31.102067" lon="78.299335">
        <ele>2347.25</ele>
      </trkpt>
      <trkpt lat="31.102177" lon="78.299925">
        <ele>2346.25</ele>
      </trkpt>
      <trkpt lat="31.102471" lon="78.300526">
        <ele>2339.25</ele>
      </trkpt>
      <trkpt lat="31.102657" lon="78.300758">
        <ele>2334.0</ele>
      </trkpt>
      <trkpt lat="31.102797" lon="78.301211">
        <ele>2340.25</ele>
      </trkpt>
      <trkpt lat="31.102873" lon="78.301431">
        <ele>2343.5</ele>
      </trkpt>
      <trkpt lat="31.103098" lon="78.301823">
        <ele>2347.5</ele>
      </trkpt>
      <trkpt lat="31.103502" lon="78.302391">
        <ele>2352.75</ele>
      </trkpt>
      <trkpt lat="31.103906" lon="78.302922">
        <ele>2355.0</ele>
      </trkpt>
      <trkpt lat="31.104333" lon="78.303301">
        <ele>2348.5</ele>
      </trkpt>
      <trkpt lat="31.104393" lon="78.303694">
        <ele>2358.5</ele>
      </trkpt>
      <trkpt lat="31.104581" lon="78.30377">
        <ele>2352.75</ele>
      </trkpt>
      <trkpt lat="31.105036" lon="78.304097">
        <ele>2344.75</ele>
      </trkpt>
      <trkpt lat="31.105142" lon="78.304682">
        <ele>2362.0</ele>
      </trkpt>
      <trkpt lat="31.105325" lon="78.304896">
        <ele>2360.25</ele>
      </trkpt>
      <trkpt lat="31.105721" lon="78.305412">
        <ele>2350.0</ele>
      </trkpt>
      <trkpt lat="31.105992" lon="78.305707">
        <ele>2343.5</ele>
      </trkpt>
      <trkpt lat="31.106116" lon="78.305605">
        <ele>2326.43396</ele>
      </trkpt>
      <trkpt lat="31.105992" lon="78.305707">
        <ele>2343.5</ele>
      </trkpt>
      <trkpt lat="31.105901" lon="78.30625">
        <ele>2353.0</ele>
      </trkpt>
      <trkpt lat="31.105996" lon="78.306373">
        <ele>2349.5</ele>
      </trkpt>
      <trkpt lat="31.106024" lon="78.30646">
        <ele>2348.75</ele>
      </trkpt>
      <trkpt lat="31.106189" lon="78.306749">
        <ele>2343.25</ele>
      </trkpt>
      <trkpt lat="31.106211" lon="78.306803">
        <ele>2342.75</ele>
      </trkpt>
      <trkpt lat="31.106371" lon="78.30709">
        <ele>2337.0</ele>
      </trkpt>
      <trkpt lat="31.106462" lon="78.307495">
        <ele>2335.5</ele>
      </trkpt>
      <trkpt lat="31.106349" lon="78.307666">
        <ele>2342.75</ele>
      </trkpt>
      <trkpt lat="31.106364" lon="78.30782">
        <ele>2342.5</ele>
      </trkpt>
      <trkpt lat="31.106359" lon="78.307836">
        <ele>2343.0</ele>
      </trkpt>
      <trkpt lat="31.106529" lon="78.308453">
        <ele>2335.25</ele>
      </trkpt>
      <trkpt lat="31.106569" lon="78.308631">
        <ele>2334.5</ele>
      </trkpt>
      <trkpt lat="31.106662" lon="78.309043">
        <ele>2334.5</ele>
      </trkpt>
      <trkpt lat="31.106731" lon="78.309376">
        <ele>2336.5</ele>
      </trkpt>
      <trkpt lat="31.10669" lon="78.310379">
        <ele>2338.75</ele>
      </trkpt>
      <trkpt lat="31.106602" lon="78.311591">
        <ele>2342.75</ele>
      </trkpt>
      <trkpt lat="31.106579" lon="78.31275">
        <ele>2344.0</ele>
      </trkpt>
      <trkpt lat="31.106538" lon="78.313249">
        <ele>2346.0</ele>
      </trkpt>
      <trkpt lat="31.10606" lon="78.313726">
        <ele>2368.0</ele>
      </trkpt>
      <trkpt lat="31.105971" lon="78.313827">
        <ele>2370.0</ele>
      </trkpt>
      <trkpt lat="31.105935" lon="78.313895">
        <ele>2370.5</ele>
      </trkpt>
      <trkpt lat="31.10594" lon="78.31394">
        <ele>2369.5</ele>
      </trkpt>
      <trkpt lat="31.10599" lon="78.314002">
        <ele>2367.25</ele>
      </trkpt>
      <trkpt lat="31.106166" lon="78.314226">
        <ele>2363.5</ele>
      </trkpt>
      <trkpt lat="31.106181" lon="78.314232">
        <ele>2363.5</ele>
      </trkpt>
      <trkpt lat="31.106281" lon="78.314139">
        <ele>2358.75</ele>
      </trkpt>
      <trkpt lat="31.106823" lon="78.314381">
        <ele>2357.5</ele>
      </trkpt>
      <trkpt lat="31.107223" lon="78.314612">
        <ele>2357.5</ele>
      </trkpt>
      <trkpt lat="31.10727" lon="78.314676">
        <ele>2357.5</ele>
      </trkpt>
      <trkpt lat="31.107512" lon="78.315003">
        <ele>2354.25</ele>
      </trkpt>
      <trkpt lat="31.107231" lon="78.31529">
        <ele>2374.0</ele>
      </trkpt>
      <trkpt lat="31.107643" lon="78.315949">
        <ele>2379.25</ele>
      </trkpt>
      <trkpt lat="31.107946" lon="78.316566">
        <ele>2389.25</ele>
      </trkpt>
      <trkpt lat="31.108498" lon="78.317295">
        <ele>2390.75</ele>
      </trkpt>
      <trkpt lat="31.10864" lon="78.317494">
        <ele>2392.5</ele>
      </trkpt>
      <trkpt lat="31.108769" lon="78.3178">
        <ele>2398.75</ele>
      </trkpt>
      <trkpt lat="31.108971" lon="78.318025">
        <ele>2396.25</ele>
      </trkpt>
      <trkpt lat="31.108929" lon="78.318315">
        <ele>2406.75</ele>
      </trkpt>
      <trkpt lat="31.109063" lon="78.318808">
        <ele>2416.0</ele>
      </trkpt>
      <trkpt lat="31.109513" lon="78.319645">
        <ele>2424.0</ele>
      </trkpt>
      <trkpt lat="31.109852" lon="78.320337">
        <ele>2417.25</ele>
      </trkpt>
      <trkpt lat="31.109802" lon="78.320825">
        <ele>2427.25</ele>
      </trkpt>
      <trkpt lat="31.109834" lon="78.321142">
        <ele>2432.0</ele>
      </trkpt>
      <trkpt lat="31.10982" lon="78.321415">
        <ele>2439.25</ele>
      </trkpt>
      <trkpt lat="31.109852" lon="78.321887">
        <ele>2445.75</ele>
      </trkpt>
      <trkpt lat="31.110188" lon="78.323137">
        <ele>2452.5</ele>
      </trkpt>
      <trkpt lat="31.110606" lon="78.324446">
        <ele>2452.25</ele>
      </trkpt>
      <trkpt lat="31.110808" lon="78.325326">
        <ele>2455.5</ele>
      </trkpt>
      <trkpt lat="31.110789" lon="78.325701">
        <ele>2462.5</ele>
      </trkpt>
      <trkpt lat="31.110909" lon="78.325809">
        <ele>2461.5</ele>
      </trkpt>
      <trkpt lat="31.11112" lon="78.327327">
        <ele>2462.75</ele>
      </trkpt>
      <trkpt lat="31.111116" lon="78.327563">
        <ele>2463.25</ele>
      </trkpt>
      <trkpt lat="31.11118" lon="78.327767">
        <ele>2463.75</ele>
      </trkpt>
      <trkpt lat="31.111184" lon="78.328035">
        <ele>2465.25</ele>
      </trkpt>
      <trkpt lat="31.111212" lon="78.328212">
        <ele>2466.25</ele>
      </trkpt>
      <trkpt lat="31.111093" lon="78.328528">
        <ele>2468.75</ele>
      </trkpt>
      <trkpt lat="31.111175" lon="78.329612">
        <ele>2474.75</ele>
      </trkpt>
      <trkpt lat="31.111276" lon="78.329918">
        <ele>2474.25</ele>
      </trkpt>
      <trkpt lat="31.111347" lon="78.330356">
        <ele>2479.0</ele>
      </trkpt>
      <trkpt lat="31.111374" lon="78.330352">
        <ele>2465.82487</ele>
      </trkpt>
      <trkpt lat="31.111347" lon="78.330356">
        <ele>2476.5</ele>
      </trkpt>
      <trkpt lat="31.111423" lon="78.330824">
        <ele>2479.0</ele>
      </trkpt>
      <trkpt lat="31.111561" lon="78.331055">
        <ele>2476.25</ele>
      </trkpt>
      <trkpt lat="31.11169" lon="78.331618">
        <ele>2476.0</ele>
      </trkpt>
      <trkpt lat="31.11191" lon="78.331881">
        <ele>2482.0</ele>
      </trkpt>
      <trkpt lat="31.111938" lon="78.332069">
        <ele>2484.5</ele>
      </trkpt>
      <trkpt lat="31.112048" lon="78.332246">
        <ele>2486.5</ele>
      </trkpt>
      <trkpt lat="31.112158" lon="78.332659">
        <ele>2491.75</ele>
      </trkpt>
      <trkpt lat="31.11247" lon="78.333029">
        <ele>2495.25</ele>
      </trkpt>
      <trkpt lat="31.112617" lon="78.333061">
        <ele>2495.75</ele>
      </trkpt>
      <trkpt lat="31.112668" lon="78.333174">
        <ele>2497.25</ele>
      </trkpt>
      <trkpt lat="31.112608" lon="78.333668">
        <ele>2502.75</ele>
      </trkpt>
      <trkpt lat="31.112654" lon="78.333753">
        <ele>2503.0</ele>
      </trkpt>
      <trkpt lat="31.112645" lon="78.334">
        <ele>2505.75</ele>
      </trkpt>
      <trkpt lat="31.112666" lon="78.334021">
        <ele>2505.75</ele>
      </trkpt>
      <trkpt lat="31.112731" lon="78.334087">
        <ele>2505.5</ele>
      </trkpt>
      <trkpt lat="31.112783" lon="78.33414">
        <ele>2505.5</ele>
      </trkpt>
      <trkpt lat="31.113058" lon="78.333268">
        <ele>2496.75</ele>
      </trkpt>
      <trkpt lat="31.113294" lon="78.333204">
        <ele>2497.0</ele>
      </trkpt>
      <trkpt lat="31.113522" lon="78.333142">
        <ele>2509.0</ele>
      </trkpt>
      <trkpt lat="31.11377" lon="78.333432">
        <ele>2519.75</ele>
      </trkpt>
      <trkpt lat="31.113956" lon="78.33385">
        <ele>2532.5</ele>
      </trkpt>
      <trkpt lat="31.114211" lon="78.334424">
        <ele>2532.5</ele>
      </trkpt>
      <trkpt lat="31.114376" lon="78.335186">
        <ele>2536.25</ele>
      </trkpt>
      <trkpt lat="31.11445" lon="78.335443">
        <ele>2539.0</ele>
      </trkpt>
      <trkpt lat="31.114574" lon="78.335572">
        <ele>2545.5</ele>
      </trkpt>
      <trkpt lat="31.114799" lon="78.335738">
        <ele>2557.5</ele>
      </trkpt>
      <trkpt lat="31.115423" lon="78.337176">
        <ele>2575.0</ele>
      </trkpt>
      <trkpt lat="31.115653" lon="78.337439">
        <ele>2583.25</ele>
      </trkpt>
      <trkpt lat="31.116007" lon="78.337514">
        <ele>2604.75</ele>
      </trkpt>
      <trkpt lat="31.116204" lon="78.3376">
        <ele>2617.0</ele>
      </trkpt>
      <trkpt lat="31.116085" lon="78.338115">
        <ele>2600.5</ele>
      </trkpt>
      <trkpt lat="31.116282" lon="78.338415">
        <ele>2609.25</ele>
      </trkpt>
      <trkpt lat="31.116682" lon="78.338587">
        <ele>2631.5</ele>
      </trkpt>
      <trkpt lat="31.116765" lon="78.339032">
        <ele>2621.75</ele>
      </trkpt>
      <trkpt lat="31.117068" lon="78.339155">
        <ele>2634.5</ele>
      </trkpt>
      <trkpt lat="31.117366" lon="78.339831">
        <ele>2647.75</ele>
      </trkpt>
      <trkpt lat="31.116755" lon="78.340212">
        <ele>2617.25</ele>
      </trkpt>
      <trkpt lat="31.11715" lon="78.340572">
        <ele>2644.75</ele>
      </trkpt>
      <trkpt lat="31.117215" lon="78.340775">
        <ele>2652.0</ele>
      </trkpt>
      <trkpt lat="31.11738" lon="78.341033">
        <ele>2662.0</ele>
      </trkpt>
      <trkpt lat="31.117513" lon="78.341092">
        <ele>2670.25</ele>
      </trkpt>
      <trkpt lat="31.117665" lon="78.34121">
        <ele>2678.0</ele>
      </trkpt>
      <trkpt lat="31.117835" lon="78.34136">
        <ele>2686.75</ele>
      </trkpt>
      <trkpt lat="31.117881" lon="78.341462">
        <ele>2689.0</ele>
      </trkpt>
      <trkpt lat="31.11823" lon="78.341752">
        <ele>2709.25</ele>
      </trkpt>
      <trkpt lat="31.118418" lon="78.341795">
        <ele>2720.25</ele>
      </trkpt>
      <trkpt lat="31.118455" lon="78.34187">
        <ele>2722.0</ele>
      </trkpt>
      <trkpt lat="31.118546" lon="78.341848">
        <ele>2727.25</ele>
      </trkpt>
      <trkpt lat="31.118625" lon="78.341864">
        <ele>2731.5</ele>
      </trkpt>
      <trkpt lat="31.11862" lon="78.342299">
        <ele>2731.0</ele>
      </trkpt>
      <trkpt lat="31.118634" lon="78.342395">
        <ele>2731.75</ele>
      </trkpt>
      <trkpt lat="31.118657" lon="78.342782">
        <ele>2732.75</ele>
      </trkpt>
      <trkpt lat="31.118712" lon="78.34283">
        <ele>2736.0</ele>
      </trkpt>
      <trkpt lat="31.118771" lon="78.343103">
        <ele>2739.25</ele>
      </trkpt>
      <trkpt lat="31.118863" lon="78.343307">
        <ele>2744.5</ele>
      </trkpt>
      <trkpt lat="31.118922" lon="78.343367">
        <ele>2750.75</ele>
      </trkpt>
    </trkseg>
  </trk>
  <trk>
    <name>Trek 2 Stage 2 Osla to Ruinsara Tal</name>
    <trkseg>
      <trkpt lat="31.119043" lon="78.343048">
        <ele>2752.50758</ele>
      </trkpt>
      <trkpt lat="31.119297" lon="78.345175">
        <ele>2744.51671</ele>
      </trkpt>
      <trkpt lat="31.118834" lon="78.346918">
        <ele>2720.89112</ele>
      </trkpt>
      <trkpt lat="31.118879" lon="78.347737">
        <ele>2724.18466</ele>
      </trkpt>
      <trkpt lat="31.119571" lon="78.348597">
        <ele>2755.89921</ele>
      </trkpt>
      <trkpt lat="31.119725" lon="78.350403">
        <ele>2720.10895</ele>
      </trkpt>
      <trkpt lat="31.120653" lon="78.35528">
        <ele>2704.91853</ele>
      </trkpt>
      <trkpt lat="31.121426" lon="78.355822">
        <ele>2740.7974</ele>
      </trkpt>
      <trkpt lat="31.121736" lon="78.35799">
        <ele>2766.97635</ele>
      </trkpt>
      <trkpt lat="31.122663" lon="78.359254">
        <ele>2811.76536</ele>
      </trkpt>
      <trkpt lat="31.123127" lon="78.360699">
        <ele>2802.87149</ele>
      </trkpt>
      <trkpt lat="31.123591" lon="78.362867">
        <ele>2801.80862</ele>
      </trkpt>
      <trkpt lat="31.125138" lon="78.364673">
        <ele>2826.56804</ele>
      </trkpt>
      <trkpt lat="31.126838" lon="78.367744">
        <ele>2897.96961</ele>
      </trkpt>
      <trkpt lat="31.126993" lon="78.36955">
        <ele>2902.49493</ele>
      </trkpt>
      <trkpt lat="31.126838" lon="78.370815">
        <ele>2914.9916</ele>
      </trkpt>
      <trkpt lat="31.126684" lon="78.372982">
        <ele>2926.88305</ele>
      </trkpt>
      <trkpt lat="31.126993" lon="78.374428">
        <ele>2924.40501</ele>
      </trkpt>
      <trkpt lat="31.126838" lon="78.37786">
        <ele>2918.02555</ele>
      </trkpt>
      <trkpt lat="31.127148" lon="78.379485">
        <ele>2940.68133</ele>
      </trkpt>
      <trkpt lat="31.127457" lon="78.385446">
        <ele>2977.10871</ele>
      </trkpt>
      <trkpt lat="31.126993" lon="78.387253">
        <ele>2967.64926</ele>
      </trkpt>
      <trkpt lat="31.126529" lon="78.388156">
        <ele>2978.12876</ele>
      </trkpt>
      <trkpt lat="31.125292" lon="78.389962">
        <ele>2945.48697</ele>
      </trkpt>
      <trkpt lat="31.124674" lon="78.391227">
        <ele>2964.25537</ele>
      </trkpt>
      <trkpt lat="31.123127" lon="78.393214">
        <ele>3010.75623</ele>
      </trkpt>
      <trkpt lat="31.123127" lon="78.393394">
        <ele>3023.31382</ele>
      </trkpt>
      <trkpt lat="31.12189" lon="78.393936">
        <ele>3015.36262</ele>
      </trkpt>
      <trkpt lat="31.121581" lon="78.394659">
        <ele>3037.4728</ele>
      </trkpt>
      <trkpt lat="31.120653" lon="78.396104">
        <ele>3031.46136</ele>
      </trkpt>
      <trkpt lat="31.120498" lon="78.396646">
        <ele>3038.16098</ele>
      </trkpt>
      <trkpt lat="31.120035" lon="78.397368">
        <ele>3057.22842</ele>
      </trkpt>
      <trkpt lat="31.118488" lon="78.39791">
        <ele>3041.57468</ele>
      </trkpt>
      <trkpt lat="31.11756" lon="78.399175">
        <ele>3054.74398</ele>
      </trkpt>
      <trkpt lat="31.116632" lon="78.400259">
        <ele>3027.73416</ele>
      </trkpt>
      <trkpt lat="31.11555" lon="78.402246">
        <ele>3043.71675</ele>
      </trkpt>
      <trkpt lat="31.114931" lon="78.404052">
        <ele>3068.25954</ele>
      </trkpt>
      <trkpt lat="31.114158" lon="78.404774">
        <ele>3036.99013</ele>
      </trkpt>
      <trkpt lat="31.114158" lon="78.405316">
        <ele>3069.62751</ele>
      </trkpt>
      <trkpt lat="31.113539" lon="78.40622">
        <ele>3052.93798</ele>
      </trkpt>
      <trkpt lat="31.11323" lon="78.407665">
        <ele>3083.7172</ele>
      </trkpt>
      <trkpt lat="31.111993" lon="78.40911">
        <ele>3094.60931</ele>
      </trkpt>
      <trkpt lat="31.111374" lon="78.410013">
        <ele>3099.88553</ele>
      </trkpt>
      <trkpt lat="31.110137" lon="78.410736">
        <ele>3097.05119</ele>
      </trkpt>
      <trkpt lat="31.10859" lon="78.413806">
        <ele>3136.15161</ele>
      </trkpt>
      <trkpt lat="31.107353" lon="78.415793">
        <ele>3194.65832</ele>
      </trkpt>
      <trkpt lat="31.106116" lon="78.416516">
        <ele>3149.06957</ele>
      </trkpt>
      <trkpt lat="31.105652" lon="78.417419">
        <ele>3153.80709</ele>
      </trkpt>
      <trkpt lat="31.105343" lon="78.418684">
        <ele>3191.98535</ele>
      </trkpt>
      <trkpt lat="31.104879" lon="78.420129">
        <ele>3202.26672</ele>
      </trkpt>
      <trkpt lat="31.10426" lon="78.421212">
        <ele>3190.04856</ele>
      </trkpt>
      <trkpt lat="31.103332" lon="78.423199">
        <ele>3189.90591</ele>
      </trkpt>
      <trkpt lat="31.102868" lon="78.42609">
        <ele>3214.14138</ele>
      </trkpt>
      <trkpt lat="31.102559" lon="78.427535">
        <ele>3271.80129</ele>
      </trkpt>
      <trkpt lat="31.101321" lon="78.429341">
        <ele>3262.48758</ele>
      </trkpt>
      <trkpt lat="31.099929" lon="78.430967">
        <ele>3264.13073</ele>
      </trkpt>
      <trkpt lat="31.099465" lon="78.431328">
        <ele>3297.4511</ele>
      </trkpt>
      <trkpt lat="31.098846" lon="78.432051">
        <ele>3354.8933</ele>
      </trkpt>
      <trkpt lat="31.097918" lon="78.433315">
        <ele>3334.09319</ele>
      </trkpt>
      <trkpt lat="31.096526" lon="78.434038">
        <ele>3290.60917</ele>
      </trkpt>
      <trkpt lat="31.09458" lon="78.435473">
        <ele>3299.28711</ele>
      </trkpt>
      <trkpt lat="31.092728" lon="78.437997">
        <ele>3337.0</ele>
      </trkpt>
      <trkpt lat="31.092614" lon="78.43828">
        <ele>3339.4</ele>
      </trkpt>
      <trkpt lat="31.09243" lon="78.438735">
        <ele>3339.3</ele>
      </trkpt>
      <trkpt lat="31.092136" lon="78.439057">
        <ele>3333.0</ele>
      </trkpt>
      <trkpt lat="31.092007" lon="78.439443">
        <ele>3339.0</ele>
      </trkpt>
      <trkpt lat="31.091677" lon="78.43955">
        <ele>3342.5</ele>
      </trkpt>
      <trkpt lat="31.091474" lon="78.439743">
        <ele>3346.7</ele>
      </trkpt>
      <trkpt lat="31.091236" lon="78.439861">
        <ele>3344.0</ele>
      </trkpt>
      <trkpt lat="31.090997" lon="78.43998">
        <ele>3342.4</ele>
      </trkpt>
      <trkpt lat="31.090795" lon="78.440366">
        <ele>3353.1</ele>
      </trkpt>
      <trkpt lat="31.090513" lon="78.440516">
        <ele>3361.4</ele>
      </trkpt>
      <trkpt lat="31.090231" lon="78.440666">
        <ele>3355.3</ele>
      </trkpt>
      <trkpt lat="31.089949" lon="78.440816">
        <ele>3358.5</ele>
      </trkpt>
      <trkpt lat="31.08972" lon="78.441095">
        <ele>3358.8</ele>
      </trkpt>
      <trkpt lat="31.08949" lon="78.441374">
        <ele>3365.6</ele>
      </trkpt>
      <trkpt lat="31.089251" lon="78.441514">
        <ele>3370.5</ele>
      </trkpt>
      <trkpt lat="31.089012" lon="78.441653">
        <ele>3373.8</ele>
      </trkpt>
      <trkpt lat="31.088865" lon="78.442147">
        <ele>3381.7</ele>
      </trkpt>
      <trkpt lat="31.088663" lon="78.442404">
        <ele>3396.8</ele>
      </trkpt>
      <trkpt lat="31.088461" lon="78.442662">
        <ele>3399.3</ele>
      </trkpt>
      <trkpt lat="31.088351" lon="78.442984">
        <ele>3396.0</ele>
      </trkpt>
      <trkpt lat="31.08824" lon="78.443305">
        <ele>3398.1</ele>
      </trkpt>
      <trkpt lat="31.088022" lon="78.443588">
        <ele>3403.5</ele>
      </trkpt>
      <trkpt lat="31.087803" lon="78.44387">
        <ele>3411.7</ele>
      </trkpt>
      <trkpt lat="31.087808" lon="78.444319">
        <ele>3423.6</ele>
      </trkpt>
      <trkpt lat="31.087813" lon="78.444767">
        <ele>3438.4</ele>
      </trkpt>
      <trkpt lat="31.087818" lon="78.445215">
        <ele>3444.8</ele>
      </trkpt>
      <trkpt lat="31.087533" lon="78.445356">
        <ele>3428.8</ele>
      </trkpt>
      <trkpt lat="31.087247" lon="78.445496">
        <ele>3426.3</ele>
      </trkpt>
      <trkpt lat="31.087036" lon="78.445656">
        <ele>3429.5</ele>
      </trkpt>
      <trkpt lat="31.086825" lon="78.445816">
        <ele>3435.7</ele>
      </trkpt>
      <trkpt lat="31.086596" lon="78.446224">
        <ele>3447.4</ele>
      </trkpt>
      <trkpt lat="31.086366" lon="78.446631">
        <ele>3453.0</ele>
      </trkpt>
      <trkpt lat="31.086136" lon="78.447039">
        <ele>3458.5</ele>
      </trkpt>
      <trkpt lat="31.085907" lon="78.447447">
        <ele>3468.2</ele>
      </trkpt>
      <trkpt lat="31.085466" lon="78.44754">
        <ele>3465.4</ele>
      </trkpt>
      <trkpt lat="31.085025" lon="78.447633">
        <ele>3464.4</ele>
      </trkpt>
      <trkpt lat="31.084584" lon="78.447726">
        <ele>3466.4</ele>
      </trkpt>
      <trkpt lat="31.084285" lon="78.448053">
        <ele>3475.1</ele>
      </trkpt>
      <trkpt lat="31.083986" lon="78.44838">
        <ele>3484.4</ele>
      </trkpt>
      <trkpt lat="31.083688" lon="78.448707">
        <ele>3488.4</ele>
      </trkpt>
      <trkpt lat="31.083389" lon="78.449035">
        <ele>3490.0</ele>
      </trkpt>
      <trkpt lat="31.083377" lon="78.449407">
        <ele>3497.0</ele>
      </trkpt>
      <trkpt lat="31.083365" lon="78.449779">
        <ele>3503.9</ele>
      </trkpt>
      <trkpt lat="31.083352" lon="78.45015">
        <ele>3510.5</ele>
      </trkpt>
      <trkpt lat="31.083371" lon="78.450429">
        <ele>3515.6</ele>
      </trkpt>
      <trkpt lat="31.083389" lon="78.450708">
        <ele>3521.8</ele>
      </trkpt>
      <trkpt lat="31.083281" lon="78.451135">
        <ele>3530.3</ele>
      </trkpt>
      <trkpt lat="31.083173" lon="78.451561">
        <ele>3534.8</ele>
      </trkpt>
      <trkpt lat="31.083088" lon="78.451896">
        <ele>3540.8</ele>
      </trkpt>
      <trkpt lat="31.083003" lon="78.452232">
        <ele>3549.8</ele>
      </trkpt>
      <trkpt lat="31.083095" lon="78.452682">
        <ele>3556.4</ele>
      </trkpt>
      <trkpt lat="31.083187" lon="78.453133">
        <ele>3561.8</ele>
      </trkpt>
      <trkpt lat="31.083049" lon="78.453535">
        <ele>3569.1</ele>
      </trkpt>
      <trkpt lat="31.082911" lon="78.453938">
        <ele>3575.3</ele>
      </trkpt>
      <trkpt lat="31.082773" lon="78.45434">
        <ele>3580.5</ele>
      </trkpt>
      <trkpt lat="31.082636" lon="78.454742">
        <ele>3586.4</ele>
      </trkpt>
      <trkpt lat="31.08242" lon="78.455102">
        <ele>3588.7</ele>
      </trkpt>
      <trkpt lat="31.082204" lon="78.455461">
        <ele>3588.1</ele>
      </trkpt>
      <trkpt lat="31.081988" lon="78.455821">
        <ele>3588.9</ele>
      </trkpt>
      <trkpt lat="31.081772" lon="78.45618">
        <ele>3589.8</ele>
      </trkpt>
      <trkpt lat="31.081717" lon="78.456652">
        <ele>3597.3</ele>
      </trkpt>
      <trkpt lat="31.081524" lon="78.456867">
        <ele>3602.2</ele>
      </trkpt>
      <trkpt lat="31.081331" lon="78.457081">
        <ele>3602.5</ele>
      </trkpt>
      <trkpt lat="31.081131" lon="78.457219">
        <ele>3601.2</ele>
      </trkpt>
      <trkpt lat="31.080925" lon="78.457577">
        <ele>3596.0</ele>
      </trkpt>
      <trkpt lat="31.080854" lon="78.4577">
        <ele>3596.5</ele>
      </trkpt>
    </trkseg>
  </trk>
</gpx>